NORAD_CAT_ID,OBJECT_NAME,OBJECT_TYPE,EPOCH,MEAN_MOTION,ECCENTRICITY,INCLINATION,RA_OF_ASC_NODE,ARG_OF_PERICENTER,MEAN_ANOMALY,BSTAR,MEAN_MOTION_DOT,MEAN_MOTION_DDOT,TLE_LINE0,TLE_LINE1,TLE_LINE2,SEMIMAJOR_AXIS,PERIOD,APOGEE,PERIGEE,DECAYED
53607.0,STARLINK-4591,PAYLOAD,2024-02-08 07:34:18,15.08828972,0.0001464,53.2171,52.6219,93.9379,266.1781,-0.00011817,-2.168e-05,0.0,0 STARLINK-4591,1 53607U 22104V   24039.31548774 -.00002168  00000-0 -11817-3 0  9997,2 53607  53.2171  52.6219 0001464  93.9379 266.1781 15.08828972 80898,6917.914,95.438,540.792,538.766,0.0
53607.0,STARLINK-4591,PAYLOAD,2024-02-09 04:14:17,15.08847364,0.0001342,53.216,48.7605,60.8211,299.2916,0.00013971,1.937e-05,0.0,0 STARLINK-4591,1 53607U 22104V   24040.17659379  .00001937  00000-0  13971-3 0  9991,2 53607  53.2160  48.7605 0001342  60.8211 299.2916 15.08847364 80336,6917.858,95.437,540.651,538.795,0.0
53607.0,STARLINK-4591,PAYLOAD,2024-02-09 10:35:49,15.08844936,0.0001825,53.2176,47.5671,120.4262,239.6911,0.00027092,4.027e-05,0.0,0 STARLINK-4591,1 53607U 22104V   24040.44154835  .00004027  00000-0  27092-3 0  9990,2 53607  53.2176  47.5671 0001825 120.4262 239.6911 15.08844936 81064,6917.865,95.437,540.993,538.468,0.0
53607.0,STARLINK-4591,PAYLOAD,2024-02-10 04:05:05,15.08837479,0.0001728,53.2174,44.2938,116.6404,243.4765,0.00018709,2.691e-05,0.0,0 STARLINK-4591,1 53607U 22104V   24041.17019857  .00002691  00000-0  18709-3 0  9995,2 53607  53.2174  44.2938 0001728 116.6404 243.4765 15.08837479 80488,6917.888,95.438,540.949,538.558,0.0
53607.0,STARLINK-4591,PAYLOAD,2024-02-10 08:51:14,15.08840532,0.000143,53.2186,43.4062,95.1176,264.9979,0.00023815,3.504e-05,0.0,0 STARLINK-4591,1 53607U 22104V   24041.36891896  .00003504  00000-0  23815-3 0  9995,2 53607  53.2186  43.4062 0001430  95.1176 264.9979 15.08840532 81207,6917.879,95.438,540.733,538.755,0.0
53607.0,STARLINK-4591,PAYLOAD,2024-02-11 07:06:38,15.08852733,0.0001472,53.2191,39.2455,101.1108,259.005,4.6987e-05,4.6e-06,0.0,0 STARLINK-4591,1 53607U 22104V   24042.29627449  .00000460  00000-0  46987-4 0  9993,2 53607  53.2191  39.2455 0001472 101.1108 259.0050 15.08852733 80650,6917.841,95.437,540.725,538.688,0.0
53607.0,STARLINK-4591,PAYLOAD,2024-02-12 03:46:39,15.08843867,0.000157,53.2194,35.3784,100.8031,259.3138,6.3288e-05,7.19e-06,0.0,0 STARLINK-4591,1 53607U 22104V   24043.15739624  .00000719  00000-0  63288-4 0  9998,2 53607  53.2194  35.3784 0001570 100.8031 259.3138 15.08843867 80787,6917.869,95.437,540.82,538.647,0.0
53607.0,STARLINK-4591,PAYLOAD,2024-02-12 06:57:24,15.08864095,0.0001678,53.2189,34.7824,96.9134,263.2049,-0.00012967,-2.353e-05,0.0,0 STARLINK-4591,1 53607U 22104V   24043.28986761 -.00002353  00000-0 -12967-3 0  9993,2 53607  53.2189  34.7824 0001678  96.9134 263.2049 15.08864095 80801,6917.807,95.436,540.833,538.511,0.0
53607.0,STARLINK-4591,PAYLOAD,2024-02-12 22:51:16,15.08845057,0.0001561,53.2189,31.8148,81.3703,278.7466,4.3258e-05,4.01e-06,0.0,0 STARLINK-4591,1 53607U 22104V   24043.95227702  .00000401  00000-0  43258-4 0  9998,2 53607  53.2189  31.8148 0001561  81.3703 278.7466 15.08845057 81597,6917.865,95.437,540.81,538.65,0.0
53607.0,STARLINK-4591,PAYLOAD,2024-02-13 03:37:26,15.08840091,0.0001626,53.2191,30.9188,82.8358,277.2819,-5.1323e-06,-3.7e-06,0.0,0 STARLINK-4591,1 53607U 22104V   24044.15100153 -.00000370  00000-0 -51323-5 0  9991,2 53607  53.2191  30.9188 0001626  82.8358 277.2819 15.08840091 80934,6917.88,95.438,540.87,538.62,0.0
53607.0,STARLINK-4591,PAYLOAD,2024-02-13 06:48:12,15.08843278,0.0001459,53.2191,30.3223,90.1188,269.9972,1.534e-05,-4.4e-07,0.0,0 STARLINK-4591,1 53607U 22104V   24044.28347821 -.00000044  00000-0  15340-4 0  9995,2 53607  53.2191  30.3223 0001459  90.1188 269.9972 15.08843278 81642,6917.87,95.437,540.745,538.726,0.0
53607.0,STARLINK-4591,PAYLOAD,2024-02-13 22:42:04,15.08827374,0.0001622,53.2193,27.3492,96.9162,263.2015,0.00020204,2.928e-05,0.0,0 STARLINK-4591,1 53607U 22104V   24044.94588170  .00002928  00000-0  20204-3 0  9998,2 53607  53.2193  27.3492 0001622  96.9162 263.2015 15.08827374 81741,6917.919,95.438,540.906,538.662,0.0
53607.0,STARLINK-4591,PAYLOAD,2024-02-14 05:03:35,15.0884966,0.000124,53.2175,26.1594,103.0568,257.0562,3.9377e-05,3.39e-06,0.0,0 STARLINK-4591,1 53607U 22104V   24045.21083278  .00000339  00000-0  39377-4 0  9994,2 53607  53.2175  26.1594 0001240 103.0568 257.0562 15.08849660 81095,6917.851,95.437,540.574,538.858,0.0
53607.0,STARLINK-4591,PAYLOAD,2024-02-14 08:14:21,15.08855343,0.0001607,53.2191,25.5621,98.5682,261.5492,9.8034e-05,1.273e-05,0.0,0 STARLINK-4591,1 53607U 22104V   24045.34330749  .00001273  00000-0  98034-4 0  9999,2 53607  53.2191  25.5621 0001607  98.5682 261.5492 15.08855343 81805,6917.833,95.437,540.81,538.587,0.0
53607.0,STARLINK-4591,PAYLOAD,2024-02-14 16:11:18,15.08835106,0.0001538,53.2192,24.0782,85.1209,274.9959,4.8421e-05,4.83e-06,0.0,0 STARLINK-4591,1 53607U 22104V   24045.67452280  .00000483  00000-0  48421-4 0  9997,2 53607  53.2192  24.0782 0001538  85.1209 274.9959 15.08835106 81168,6917.895,95.438,540.824,538.696,0.0
53607.0,STARLINK-4591,PAYLOAD,2024-02-15 08:05:09,15.08839758,0.0001493,53.2191,21.1031,95.2672,264.849,8.3136e-05,1.035e-05,0.0,0 STARLINK-4591,1 53607U 22104V   24046.33692087  .00001035  00000-0  83136-4 0  9998,2 53607  53.2191  21.1031 0001493  95.2672 264.8490 15.08839758 81950,6917.881,95.438,540.779,538.713,0.0
53607.0,STARLINK-4591,PAYLOAD,2024-02-15 22:23:38,15.08833832,0.0001472,53.2196,18.4254,100.2426,259.8732,0.00010138,1.326e-05,0.0,0 STARLINK-4591,1 53607U 22104V   24046.93308567  .00001326  00000-0  10138-3 0  9995,2 53607  53.2196  18.4254 0001472 100.2426 259.8732 15.08833832 82043,6917.899,95.438,540.783,538.746,0.0
53607.0,STARLINK-4591,PAYLOAD,2024-02-16 04:45:10,15.08848663,0.0001334,53.2175,17.2383,95.7654,264.349,0.00014627,2.041e-05,0.0,0 STARLINK-4591,1 53607U 22104V   24047.19803614  .00002041  00000-0  14627-3 0  9999,2 53607  53.2175  17.2383 0001334  95.7654 264.3490 15.08848663 81395,6917.854,95.437,540.642,538.796,0.0
53607.0,STARLINK-4591,PAYLOAD,2024-02-16 22:14:25,15.08835719,0.0001515,53.2188,13.9654,88.761,271.3555,9.7557e-05,1.265e-05,0.0,0 STARLINK-4591,1 53607U 22104V   24047.92668636  .00001265  00000-0  97557-4 0  9994,2 53607  53.2188  13.9654 0001515  88.7610 271.3555 15.08835719 82195,6917.893,95.438,540.807,538.71,0.0
53607.0,STARLINK-4591,PAYLOAD,2024-02-17 04:35:58,15.08833553,0.0001375,53.2195,12.7813,81.388,278.7268,0.00014996,2.099e-05,0.0,0 STARLINK-4591,1 53607U 22104V   24048.19164791  .00002099  00000-0  14996-3 0  9998,2 53607  53.2195  12.7813 0001375  81.3880 278.7268 15.08833553 81543,6917.9,95.438,540.716,538.814,0.0
53607.0,STARLINK-4591,PAYLOAD,2024-02-17 14:08:17,15.08839731,0.00014,53.219,10.997,87.6662,272.4491,1.6067e-06,-2.62e-06,0.0,0 STARLINK-4591,1 53607U 22104V   24048.58908753 -.00000262  00000-0  16067-5 0  9999,2 53607  53.2190  10.9970 0001400  87.6662 272.4491 15.08839731 82294,6917.881,95.438,540.715,538.778,0.0
53607.0,STARLINK-4591,PAYLOAD,2024-02-18 06:02:07,15.0885219,0.000138,53.2198,8.0229,91.6986,268.4165,0.00013422,1.85e-05,0.0,0 STARLINK-4591,1 53607U 22104V   24049.25147769  .00001850  00000-0  13422-3 0  9999,2 53607  53.2198   8.0229 0001380  91.6986 268.4165 15.08852190 81700,6917.843,95.437,540.663,538.753,0.0
53607.0,STARLINK-4591,PAYLOAD,2024-02-18 13:59:03,15.08854303,0.0001334,53.2192,6.5339,86.3265,273.788,8.4923e-05,1.064e-05,0.0,0 STARLINK-4591,1 53607U 22104V   24049.58267449  .00001064  00000-0  84923-4 0  9995,2 53607  53.2192   6.5339 0001334  86.3265 273.7880 15.08854303 82442,6917.837,95.437,540.625,538.779,0.0
53607.0,STARLINK-4591,PAYLOAD,2024-02-18 20:20:36,15.08845142,0.0001896,53.2188,5.3458,81.9743,278.1464,0.00014808,2.07e-05,0.0,0 STARLINK-4591,1 53607U 22104V   24049.84764193  .00002070  00000-0  14808-3 0  9994,2 53607  53.2188   5.3458 0001896  81.9743 278.1464 15.08845142 81796,6917.865,95.437,541.041,538.418,0.0
53607.0,STARLINK-4591,PAYLOAD,2024-02-19 04:17:32,15.08839689,0.0001581,53.2198,3.8592,90.0632,270.0542,0.00011482,1.54e-05,0.0,0 STARLINK-4591,1 53607U 22104V   24050.17884509  .00001540  00000-0  11482-3 0  9992,2 53607  53.2198   3.8592 0001581  90.0632 270.0542 15.08839689 81841,6917.881,95.438,540.84,538.653,0.0
53607.0,STARLINK-4591,PAYLOAD,2024-02-19 13:49:51,15.08835677,0.0001565,53.2189,2.0732,87.3781,272.739,2.3475e-05,8.6e-07,0.0,0 STARLINK-4591,1 53607U 22104V   24050.57628959  .00000086  00000-0  23475-4 0  9991,2 53607  53.2189   2.0732 0001565  87.3781 272.7390 15.08835677 82590,6917.894,95.438,540.841,538.676,0.0
53607.0,STARLINK-4591,PAYLOAD,2024-02-20 13:40:38,15.08840916,0.0001606,53.22,357.6116,93.6131,266.5045,-7.143e-05,-1.425e-05,0.0,0 STARLINK-4591,1 53607U 22104V   24051.56989028 -.00001425  00000-0 -71430-4 0  9992,2 53607  53.2200 357.6116 0001606  93.6131 266.5045 15.08840916 82741,6917.878,95.437,540.854,538.632,0.0
53607.0,STARLINK-4591,PAYLOAD,2024-02-21 02:23:43,15.08841785,0.0001642,53.2199,355.2358,88.6018,271.5162,8.2687e-05,1.028e-05,0.0,0 STARLINK-4591,1 53607U 22104V   24052.09980776  .00001028  00000-0  82687-4 0  9995,2 53607  53.2199 355.2358 0001642  88.6018 271.5162 15.08841785 82132,6917.875,95.437,540.876,538.604,0.0
53607.0,STARLINK-4591,PAYLOAD,2024-02-21 13:31:25,15.08841721,0.0001542,53.2202,353.1519,88.0,272.1168,1.8384e-05,5e-08,0.0,0 STARLINK-4591,1 53607U 22104V   24052.56348844  .00000005  00000-0  18384-4 0  9998,2 53607  53.2202 353.1519 0001542  88.0000 272.1168 15.08841721 82893,6917.875,95.437,540.807,538.673,0.0
53607.0,STARLINK-4591,PAYLOAD,2024-02-22 02:14:30,15.0883725,0.0001625,53.2199,350.7747,89.4712,270.6466,4.8457e-05,4.83e-06,0.0,0 STARLINK-4591,1 53607U 22104V   24053.09341411  .00000483  00000-0  48457-4 0  9994,2 53607  53.2199 350.7747 0001625  89.4712 270.6466 15.08837250 82280,6917.889,95.438,540.878,538.63,0.0
